UMBRA-07                
1 58297U 23174AT  26193.69547051  .00006033  00000+0  37916-3 0  9996
2 58297  97.3790 248.4970 0002494  22.7929 337.3411 15.09593405147265
UMBRA-09                
1 60541U 24149CB  26193.83410119  .00009959  00000+0  48173-3 0  9991
2 60541  97.6981 281.4906 0001819 204.7083 155.4064 15.18803617104618
UMBRA-10                
1 60547U 24149CH  26193.76776418  .00011492  00000+0  55518-3 0  9992
2 60547  97.6986 281.4536 0001520 166.8110 193.3163 15.18808032104613
UMBRA-11                
1 66748U 25276CL  26194.20257473  .00013584  00000+0  50366-3 0  9998
2 66748  97.4196 268.6878 0002463 190.4991 169.6197 15.27730827 34460
UMBRA-12                
1 67371U 26004J   26194.30793045  .00002058  00000+0  22165-3 0  9992
2 67371  97.8021 192.7193 0007519  57.7648 302.4297 14.89524091 27193
