{"fetched_at":"2026-07-13T18:17:23.846Z","source":"https://celestrak.org/NORAD/elements/gp.php?NAME=UMBRA&FORMAT=JSON","constellation":"umbra","records":[{"OBJECT_NAME":"UMBRA-07","OBJECT_ID":"2023-174AT","EPOCH":"2026-07-12T16:41:28.652064","CLASSIFICATION_TYPE":"U","MEAN_MOTION":15.09593405,"ECCENTRICITY":0.00024944,"INCLINATION":97.379,"RA_OF_ASC_NODE":248.497,"ARG_OF_PERICENTER":22.7929,"MEAN_ANOMALY":337.3411,"EPHEMERIS_TYPE":0,"NORAD_CAT_ID":58297,"ELEMENT_SET_NO":999,"REV_AT_EPOCH":14726,"BSTAR":0.00037916005,"MEAN_MOTION_DOT":0.00006033,"MEAN_MOTION_DDOT":0},{"OBJECT_NAME":"UMBRA-09","OBJECT_ID":"2024-149CB","EPOCH":"2026-07-12T20:01:06.342816","CLASSIFICATION_TYPE":"U","MEAN_MOTION":15.18803617,"ECCENTRICITY":0.00018198,"INCLINATION":97.6981,"RA_OF_ASC_NODE":281.4906,"ARG_OF_PERICENTER":204.7083,"MEAN_ANOMALY":155.4064,"EPHEMERIS_TYPE":0,"NORAD_CAT_ID":60541,"ELEMENT_SET_NO":999,"REV_AT_EPOCH":10461,"BSTAR":0.00048172993,"MEAN_MOTION_DOT":0.00009959,"MEAN_MOTION_DDOT":0},{"OBJECT_NAME":"UMBRA-10","OBJECT_ID":"2024-149CH","EPOCH":"2026-07-12T18:25:34.825152","CLASSIFICATION_TYPE":"U","MEAN_MOTION":15.18808032,"ECCENTRICITY":0.00015204,"INCLINATION":97.6986,"RA_OF_ASC_NODE":281.4536,"ARG_OF_PERICENTER":166.811,"MEAN_ANOMALY":193.3163,"EPHEMERIS_TYPE":0,"NORAD_CAT_ID":60547,"ELEMENT_SET_NO":999,"REV_AT_EPOCH":10461,"BSTAR":0.00055518241,"MEAN_MOTION_DOT":0.00011492,"MEAN_MOTION_DDOT":0},{"OBJECT_NAME":"UMBRA-11","OBJECT_ID":"2025-276CL","EPOCH":"2026-07-13T04:51:42.455808","CLASSIFICATION_TYPE":"U","MEAN_MOTION":15.27730827,"ECCENTRICITY":0.0002463,"INCLINATION":97.4196,"RA_OF_ASC_NODE":268.6878,"ARG_OF_PERICENTER":190.4991,"MEAN_ANOMALY":169.6197,"EPHEMERIS_TYPE":0,"NORAD_CAT_ID":66748,"ELEMENT_SET_NO":999,"REV_AT_EPOCH":3446,"BSTAR":0.00050366,"MEAN_MOTION_DOT":0.00013584,"MEAN_MOTION_DDOT":0},{"OBJECT_NAME":"UMBRA-12","OBJECT_ID":"2026-004J","EPOCH":"2026-07-13T07:23:25.190880","CLASSIFICATION_TYPE":"U","MEAN_MOTION":14.89524091,"ECCENTRICITY":0.00075191,"INCLINATION":97.8021,"RA_OF_ASC_NODE":192.7193,"ARG_OF_PERICENTER":57.7648,"MEAN_ANOMALY":302.4297,"EPHEMERIS_TYPE":0,"NORAD_CAT_ID":67371,"ELEMENT_SET_NO":999,"REV_AT_EPOCH":2719,"BSTAR":0.00022165295,"MEAN_MOTION_DOT":0.00002058,"MEAN_MOTION_DDOT":0}]}
